[{"OBJECT_NAME":"STARLINK-35586","OBJECT_ID":"2025-240P","EPOCH":"2025-12-06T14:37:20.852832","MEAN_MOTION":15.30216753,"ECCENTRICITY":4.803e-5,"INCLINATION":53.1598,"RA_OF_ASC_NODE":135.4229,"ARG_OF_PERICENTER":123.132,"MEAN_ANOMALY":236.9727,"EPHEMERIS_TYPE":0,"CLASSIFICATION_TYPE":"U","NORAD_CAT_ID":66159,"ELEMENT_SET_NO":999,"REV_AT_EPOCH":773,"BSTAR":0.0010701069,"MEAN_MOTION_DOT":0.00031485,"MEAN_MOTION_DDOT":0},{"OBJECT_NAME":"STARLINK-35636","OBJECT_ID":"2025-240Q","EPOCH":"2025-12-06T10:06:55.323360","MEAN_MOTION":15.39682776,"ECCENTRICITY":0.00028818,"INCLINATION":53.1606,"RA_OF_ASC_NODE":136.388,"ARG_OF_PERICENTER":86.1663,"MEAN_ANOMALY":273.9671,"EPHEMERIS_TYPE":0,"CLASSIFICATION_TYPE":"U","NORAD_CAT_ID":66160,"ELEMENT_SET_NO":999,"REV_AT_EPOCH":770,"BSTAR":0.0019330539,"MEAN_MOTION_DOT":0.00077881,"MEAN_MOTION_DDOT":0},{"OBJECT_NAME":"STARLINK-35635","OBJECT_ID":"2025-240R","EPOCH":"2025-12-06T10:13:36.394752","MEAN_MOTION":15.39654782,"ECCENTRICITY":0.00018125,"INCLINATION":53.16,"RA_OF_ASC_NODE":136.4157,"ARG_OF_PERICENTER":92.8378,"MEAN_ANOMALY":267.2835,"EPHEMERIS_TYPE":0,"CLASSIFICATION_TYPE":"U","NORAD_CAT_ID":66161,"ELEMENT_SET_NO":999,"REV_AT_EPOCH":770,"BSTAR":0.0017971812,"MEAN_MOTION_DOT":0.00072254,"MEAN_MOTION_DDOT":0},{"OBJECT_NAME":"STARLINK-35633","OBJECT_ID":"2025-240S","EPOCH":"2025-12-06T15:22:46.346016","MEAN_MOTION":15.30221049,"ECCENTRICITY":0.00012979,"INCLINATION":53.1613,"RA_OF_ASC_NODE":134.8999,"ARG_OF_PERICENTER":17.4616,"MEAN_ANOMALY":342.643,"EPHEMERIS_TYPE":0,"CLASSIFICATION_TYPE":"U","NORAD_CAT_ID":66162,"ELEMENT_SET_NO":999,"REV_AT_EPOCH":774,"BSTAR":0.0028187216,"MEAN_MOTION_DOT":0.00084127,"MEAN_MOTION_DDOT":0},{"OBJECT_NAME":"STARLINK-35607","OBJECT_ID":"2025-240T","EPOCH":"2025-12-06T15:15:10.490112","MEAN_MOTION":15.3021839,"ECCENTRICITY":0.00010739,"INCLINATION":53.1617,"RA_OF_ASC_NODE":134.8676,"ARG_OF_PERICENTER":87.7816,"MEAN_ANOMALY":272.3308,"EPHEMERIS_TYPE":0,"CLASSIFICATION_TYPE":"U","NORAD_CAT_ID":66163,"ELEMENT_SET_NO":999,"REV_AT_EPOCH":774,"BSTAR":0.0016590476,"MEAN_MOTION_DOT":0.0004913,"MEAN_MOTION_DDOT":0},{"OBJECT_NAME":"STARLINK-35614","OBJECT_ID":"2025-240U","EPOCH":"2025-12-06T14:38:51.895968","MEAN_MOTION":15.3021441,"ECCENTRICITY":0.00013133,"INCLINATION":53.1605,"RA_OF_ASC_NODE":135.42,"ARG_OF_PERICENTER":69.2143,"MEAN_ANOMALY":290.8998,"EPHEMERIS_TYPE":0,"CLASSIFICATION_TYPE":"U","NORAD_CAT_ID":66164,"ELEMENT_SET_NO":999,"REV_AT_EPOCH":773,"BSTAR":0.0010626593,"MEAN_MOTION_DOT":0.0003126,"MEAN_MOTION_DDOT":0},{"OBJECT_NAME":"STARLINK-35575","OBJECT_ID":"2025-240V","EPOCH":"2025-12-06T14:28:13.638432","MEAN_MOTION":15.3022209,"ECCENTRICITY":8.301e-5,"INCLINATION":53.1593,"RA_OF_ASC_NODE":135.3785,"ARG_OF_PERICENTER":107.5709,"MEAN_ANOMALY":252.5383,"EPHEMERIS_TYPE":0,"CLASSIFICATION_TYPE":"U","NORAD_CAT_ID":66165,"ELEMENT_SET_NO":999,"REV_AT_EPOCH":773,"BSTAR":0.00144353,"MEAN_MOTION_DOT":0.00042669,"MEAN_MOTION_DDOT":0},{"OBJECT_NAME":"STARLINK-35624","OBJECT_ID":"2025-240W","EPOCH":"2025-12-06T14:52:22.558656","MEAN_MOTION":15.30215719,"ECCENTRICITY":1.025e-5,"INCLINATION":53.1635,"RA_OF_ASC_NODE":134.7649,"ARG_OF_PERICENTER":263.3482,"MEAN_ANOMALY":96.7507,"EPHEMERIS_TYPE":0,"CLASSIFICATION_TYPE":"U","NORAD_CAT_ID":66166,"ELEMENT_SET_NO":999,"REV_AT_EPOCH":774,"BSTAR":0.001764083,"MEAN_MOTION_DOT":0.00052282,"MEAN_MOTION_DDOT":0},{"OBJECT_NAME":"STARLINK-35641","OBJECT_ID":"2025-240X","EPOCH":"2025-12-06T15:06:03.525408","MEAN_MOTION":15.30221198,"ECCENTRICITY":7.556e-5,"INCLINATION":53.1615,"RA_OF_ASC_NODE":134.8251,"ARG_OF_PERICENTER":65.8939,"MEAN_ANOMALY":294.214,"EPHEMERIS_TYPE":0,"CLASSIFICATION_TYPE":"U","NORAD_CAT_ID":66167,"ELEMENT_SET_NO":999,"REV_AT_EPOCH":774,"BSTAR":0.0023908592,"MEAN_MOTION_DOT":0.00071178,"MEAN_MOTION_DDOT":0},{"OBJECT_NAME":"STARLINK-35578","OBJECT_ID":"2025-240Y","EPOCH":"2025-12-06T13:56:18.924576","MEAN_MOTION":15.30237404,"ECCENTRICITY":0.00010697,"INCLINATION":53.1605,"RA_OF_ASC_NODE":135.2341,"ARG_OF_PERICENTER":115.663,"MEAN_ANOMALY":244.4481,"EPHEMERIS_TYPE":0,"CLASSIFICATION_TYPE":"U","NORAD_CAT_ID":66168,"ELEMENT_SET_NO":999,"REV_AT_EPOCH":773,"BSTAR":0.0016182138,"MEAN_MOTION_DOT":0.00047933,"MEAN_MOTION_DDOT":0},{"OBJECT_NAME":"STARLINK-35638","OBJECT_ID":"2025-240Z","EPOCH":"2025-12-06T14:19:06.581280","MEAN_MOTION":15.3021695,"ECCENTRICITY":0.00012245,"INCLINATION":53.1592,"RA_OF_ASC_NODE":135.3345,"ARG_OF_PERICENTER":82.7826,"MEAN_ANOMALY":277.3314,"EPHEMERIS_TYPE":0,"CLASSIFICATION_TYPE":"U","NORAD_CAT_ID":66169,"ELEMENT_SET_NO":999,"REV_AT_EPOCH":773,"BSTAR":0.001377387,"MEAN_MOTION_DOT":0.0004068,"MEAN_MOTION_DDOT":0},{"OBJECT_NAME":"STARLINK-35585","OBJECT_ID":"2025-240AA","EPOCH":"2025-12-06T14:41:55.542624","MEAN_MOTION":15.3021293,"ECCENTRICITY":7.508e-5,"INCLINATION":53.1614,"RA_OF_ASC_NODE":135.4336,"ARG_OF_PERICENTER":87.3499,"MEAN_ANOMALY":272.7588,"EPHEMERIS_TYPE":0,"CLASSIFICATION_TYPE":"U","NORAD_CAT_ID":66170,"ELEMENT_SET_NO":999,"REV_AT_EPOCH":773,"BSTAR":0.001623116,"MEAN_MOTION_DOT":0.00048043,"MEAN_MOTION_DDOT":0},{"OBJECT_NAME":"STARLINK-35606","OBJECT_ID":"2025-240AB","EPOCH":"2025-12-06T15:16:41.691360","MEAN_MOTION":15.30216965,"ECCENTRICITY":7.772e-5,"INCLINATION":53.1619,"RA_OF_ASC_NODE":134.8707,"ARG_OF_PERICENTER":93.2705,"MEAN_ANOMALY":266.8384,"EPHEMERIS_TYPE":0,"CLASSIFICATION_TYPE":"U","NORAD_CAT_ID":66171,"ELEMENT_SET_NO":999,"REV_AT_EPOCH":774,"BSTAR":0.0018247534,"MEAN_MOTION_DOT":0.00054107,"MEAN_MOTION_DDOT":0},{"OBJECT_NAME":"STARLINK-35627","OBJECT_ID":"2025-240AC","EPOCH":"2025-12-06T14:06:18.996768","MEAN_MOTION":15.31040198,"ECCENTRICITY":0.0001003,"INCLINATION":53.1603,"RA_OF_ASC_NODE":135.2797,"ARG_OF_PERICENTER":83.8078,"MEAN_ANOMALY":276.3037,"EPHEMERIS_TYPE":0,"CLASSIFICATION_TYPE":"U","NORAD_CAT_ID":66172,"ELEMENT_SET_NO":999,"REV_AT_EPOCH":773,"BSTAR":0.0022471107,"MEAN_MOTION_DOT":0.00068579,"MEAN_MOTION_DDOT":0},{"OBJECT_NAME":"STARLINK-35634","OBJECT_ID":"2025-240AD","EPOCH":"2025-12-06T10:31:31.550304","MEAN_MOTION":15.30203454,"ECCENTRICITY":0.00016037,"INCLINATION":53.1611,"RA_OF_ASC_NODE":135.768,"ARG_OF_PERICENTER":91.7589,"MEAN_ANOMALY":268.3595,"EPHEMERIS_TYPE":0,"CLASSIFICATION_TYPE":"U","NORAD_CAT_ID":66173,"ELEMENT_SET_NO":999,"REV_AT_EPOCH":771,"BSTAR":0.0022390278,"MEAN_MOTION_DOT":0.00066557,"MEAN_MOTION_DDOT":0},{"OBJECT_NAME":"STARLINK-35363","OBJECT_ID":"2025-243B","EPOCH":"2025-12-06T05:35:49.150464","MEAN_MOTION":15.30258835,"ECCENTRICITY":0.00013008,"INCLINATION":53.16,"RA_OF_ASC_NODE":319.4544,"ARG_OF_PERICENTER":103.2509,"MEAN_ANOMALY":256.8637,"EPHEMERIS_TYPE":0,"CLASSIFICATION_TYPE":"U","NORAD_CAT_ID":66178,"ELEMENT_SET_NO":999,"REV_AT_EPOCH":634,"BSTAR":0.002598848,"MEAN_MOTION_DOT":0.00077559,"MEAN_MOTION_DDOT":0}]
