[{"norad_id":"66159","company":"STARLINK","tle_line2":"2 66159  53.1598 135.4229 0000480 123.1320 236.9727 15.30216753  7736","launch_date":"2025-10-25","type":"LEO","tle_line1":"1 66159U 25240P   25340.60926913  .00031485  00000+0  10701-2 0  9991","satellite_name":"STARLINK-35586"},{"norad_id":"66160","company":"STARLINK","tle_line2":"2 66160  53.1606 136.3880 0002881  86.1663 273.9671 15.39682776  7703","launch_date":"2025-10-25","type":"LEO","tle_line1":"1 66160U 25240Q   25340.42147365  .00077881  00000+0  19331-2 0  9997","satellite_name":"STARLINK-35636"},{"norad_id":"66161","company":"STARLINK","tle_line2":"2 66161  53.1600 136.4157 0001812  92.8378 267.2835 15.39654782  7700","launch_date":"2025-10-25","type":"LEO","tle_line1":"1 66161U 25240R   25340.42611568  .00072254  00000+0  17972-2 0  9997","satellite_name":"STARLINK-35635"},{"norad_id":"66162","company":"STARLINK","tle_line2":"2 66162  53.1613 134.8999 0001297  17.4616 342.6430 15.30221049  7746","launch_date":"2025-10-25","type":"LEO","tle_line1":"1 66162U 25240S   25340.64081419  .00084127  00000+0  28187-2 0  9990","satellite_name":"STARLINK-35633"},{"norad_id":"66163","company":"STARLINK","tle_line2":"2 66163  53.1617 134.8676 0001073  87.7816 272.3308 15.30218390  7745","launch_date":"2025-10-25","type":"LEO","tle_line1":"1 66163U 25240T   25340.63553808  .00049130  00000+0  16590-2 0  9996","satellite_name":"STARLINK-35607"},{"norad_id":"66164","company":"STARLINK","tle_line2":"2 66164  53.1605 135.4200 0001313  69.2143 290.8998 15.30214410  7736","launch_date":"2025-10-25","type":"LEO","tle_line1":"1 66164U 25240U   25340.61032287  .00031260  00000+0  10627-2 0  9998","satellite_name":"STARLINK-35614"},{"norad_id":"66165","company":"STARLINK","tle_line2":"2 66165  53.1593 135.3785 0000830 107.5709 252.5383 15.30222090  7733","launch_date":"2025-10-25","type":"LEO","tle_line1":"1 66165U 25240V   25340.60293563  .00042669  00000+0  14435-2 0  9990","satellite_name":"STARLINK-35575"},{"norad_id":"66166","company":"STARLINK","tle_line2":"2 66166  53.1635 134.7649 0000102 263.3482  96.7507 15.30215719  7741","launch_date":"2025-10-25","type":"LEO","tle_line1":"1 66166U 25240W   25340.61970554  .00052282  00000+0  17641-2 0  9998","satellite_name":"STARLINK-35624"},{"norad_id":"66167","company":"STARLINK","tle_line2":"2 66167  53.1615 134.8251 0000755  65.8939 294.2140 15.30221198  7742","launch_date":"2025-10-25","type":"LEO","tle_line1":"1 66167U 25240X   25340.62920747  .00071178  00000+0  23909-2 0  9998","satellite_name":"STARLINK-35641"},{"norad_id":"66168","company":"STARLINK","tle_line2":"2 66168  53.1605 135.2341 0001069 115.6630 244.4481 15.30237404  7739","launch_date":"2025-10-25","type":"LEO","tle_line1":"1 66168U 25240Y   25340.58077459  .00047933  00000+0  16182-2 0  9994","satellite_name":"STARLINK-35578"},{"norad_id":"66169","company":"STARLINK","tle_line2":"2 66169  53.1592 135.3345 0001224  82.7826 277.3314 15.30216950  7737","launch_date":"2025-10-25","type":"LEO","tle_line1":"1 66169U 25240Z   25340.59660395  .00040680  00000+0  13774-2 0  9999","satellite_name":"STARLINK-35638"},{"norad_id":"66170","company":"STARLINK","tle_line2":"2 66170  53.1614 135.4336 0000750  87.3499 272.7588 15.30212930  7731","launch_date":"2025-10-25","type":"LEO","tle_line1":"1 66170U 25240AA  25340.61244841  .00048043  00000+0  16231-2 0  9990","satellite_name":"STARLINK-35585"},{"norad_id":"66171","company":"STARLINK","tle_line2":"2 66171  53.1619 134.8707 0000777  93.2705 266.8384 15.30216965  7748","launch_date":"2025-10-25","type":"LEO","tle_line1":"1 66171U 25240AB  25340.63659365  .00054107  00000+0  18248-2 0  9992","satellite_name":"STARLINK-35606"},{"norad_id":"66172","company":"STARLINK","tle_line2":"2 66172  53.1603 135.2797 0001003  83.8078 276.3037 15.31040198  7731","launch_date":"2025-10-25","type":"LEO","tle_line1":"1 66172U 25240AC  25340.58771987  .00068579  00000+0  22471-2 0  9993","satellite_name":"STARLINK-35627"},{"norad_id":"66173","company":"STARLINK","tle_line2":"2 66173  53.1611 135.7680 0001603  91.7589 268.3595 15.30203454  7711","launch_date":"2025-10-25","type":"LEO","tle_line1":"1 66173U 25240AD  25340.43855961  .00066557  00000+0  22390-2 0  9997","satellite_name":"STARLINK-35634"},{"norad_id":"66178","company":"STARLINK","tle_line2":"2 66178  53.1600 319.4544 0001300 103.2509 256.8637 15.30258835  6349","launch_date":"2025-10-26","type":"LEO","tle_line1":"1 66178U 25243B   25340.23320776  .00077559  00000+0  25988-2 0  9994","satellite_name":"STARLINK-35363"}]